STARLINK-2022           
1 47643U 21012Z   24080.08751094  .00002168  00000+0  16438-3 0  9999
2 47643  53.0558  42.0371 0001398  93.9781 266.1368 15.06398411171286
